     2              NAVIGATION DATA                         RINEX VERSION / TYPE
CCRINEXN V1.6.0 UX  CDDIS               01-APR-14 17:31     PGM / RUN BY / DATE 
IGS BROADCAST EPHEMERIS FILE                                COMMENT             
    0.2608D-07  0.7451D-08 -0.1192D-06  0.0000D+00          ION ALPHA           
    0.1290D+06  0.0000D+00 -0.2621D+06  0.2621D+06          ION BETA            
    0.186264514923D-08 0.355271367880D-14   319488     1786 DELTA-UTC: A0,A1,T,W
    16                                                      LEAP SECONDS        
                                                            END OF HEADER       
 1 14  3 31  0  0  0.0 0.649783760309D-05 0.170530256582D-11 0.000000000000D+00
    0.560000000000D+02-0.677500000000D+02 0.451018786743D-08-0.990078379024D+00
   -0.359863042831D-05 0.284002150875D-02 0.943057239056D-05 0.515368133354D+04
    0.864000000000D+05 0.968575477600D-07-0.691701041428D+00-0.186264514923D-07
    0.960900454527D+00 0.200062500000D+03 0.330860160808D+00-0.807140763510D-08
   -0.726458831355D-09 0.100000000000D+01 0.178600000000D+04 0.000000000000D+00
    0.200000000000D+01 0.000000000000D+00 0.651925802231D-08 0.560000000000D+02
    0.792180000000D+05 0.400000000000D+01 0.000000000000D+00 0.000000000000D+00
 2 14  3 31  0  0  0.0 0.486945267767D-03 0.216004991671D-11 0.000000000000D+00
    0.250000000000D+02-0.752500000000D+02 0.528700593931D-08-0.364616932582D+00
   -0.388920307159D-05 0.134139357833D-01 0.830367207527D-05 0.515357588196D+04
    0.864000000000D+05 0.134110450745D-06-0.720026870272D+00 0.175088644028D-06
    0.939408426589D+00 0.209468750000D+03-0.245332194732D+01-0.870750555970D-08
   -0.713958310658D-09 0.100000000000D+01 0.178600000000D+04 0.000000000000D+00
    0.200000000000D+01 0.000000000000D+00-0.200234353542D-07 0.250000000000D+02
    0.792180000000D+05 0.400000000000D+01 0.000000000000D+00 0.000000000000D+00
 3 14  3 31  0  0  0.0 0.345480628312D-03 0.511590769747D-11 0.000000000000D+00
    0.340000000000D+02 0.548437500000D+02 0.572845289877D-08-0.181405077804D+00
    0.312179327011D-05 0.168209461262D-01 0.421516597271D-05 0.515377055168D+04
    0.864000000000D+05-0.152736902237D-06-0.189448814659D+01 0.135973095894D-06
    0.937369402592D+00 0.286187500000D+03 0.137227202802D+01-0.911502253442D-08
    0.302869758598D-09 0.100000000000D+01 0.178600000000D+04 0.000000000000D+00
    0.200000000000D+01 0.000000000000D+00-0.465661287308D-08 0.340000000000D+02
    0.792180000000D+05 0.400000000000D+01 0.000000000000D+00 0.000000000000D+00
 4 14  3 31  0  0  0.0 0.637164339423D-05 0.113686837722D-12 0.000000000000D+00
    0.950000000000D+02-0.817500000000D+02 0.503842434441D-08 0.302857150878D+01
   -0.421889126301D-05 0.105631740298D-01 0.874884426594D-05 0.515371424675D+04
    0.864000000000D+05 0.124797224999D-06-0.703954052661D+00-0.838190317154D-07
    0.938442458855D+00 0.196843750000D+03 0.108675366719D+01-0.821212786661D-08
   -0.716458392613D-09 0.100000000000D+01 0.178600000000D+04 0.000000000000D+00
    0.200000000000D+01 0.000000000000D+00-0.605359673500D-08 0.950000000000D+02
    0.864000000000D+05 0.000000000000D+00 0.000000000000D+00 0.000000000000D+00
 5 14  3 31  0  0  0.0-0.381592661142D-03 0.204636307899D-11 0.000000000000D+00
    0.460000000000D+02 0.746562500000D+02 0.441839832974D-08 0.193507460555D+01
    0.391155481338D-05 0.356411328539D-02 0.131763517857D-04 0.515357386780D+04
    0.864000000000D+05-0.186264514923D-08 0.346834481608D+00-0.130385160446D-07
    0.947947938774D+00 0.118906250000D+03 0.337537062288D+00-0.801961976364D-08
    0.218223375594D-09 0.100000000000D+01 0.178600000000D+04 0.000000000000D+00
    0.200000000000D+01 0.000000000000D+00-0.102445483208D-07 0.460000000000D+02
    0.792180000000D+05 0.400000000000D+01 0.000000000000D+00 0.000000000000D+00
 7 14  3 31  0  0  0.0 0.329884700477D-03 0.420641299570D-11 0.000000000000D+00
    0.770000000000D+02-0.113437500000D+03 0.432803742299D-08-0.161600893648D+01
   -0.607967376709D-05 0.712643505540D-02 0.866502523422D-05 0.515364277840D+04
    0.864000000000D+05 0.108033418655D-06 0.246887214330D+01-0.931322574616D-08
    0.973839429510D+00 0.216156250000D+03-0.283842083606D+01-0.805890711440D-08
   -0.360014996070D-09 0.100000000000D+01 0.178600000000D+04 0.000000000000D+00
    0.200000000000D+01 0.000000000000D+00-0.107102096081D-07 0.770000000000D+02
    0.854700000000D+05 0.400000000000D+01 0.000000000000D+00 0.000000000000D+00
 8 14  3 31  0  0  0.0 0.126240774989D-04 0.227373675443D-12 0.000000000000D+00
    0.410000000000D+02-0.109500000000D+03 0.370836875416D-08-0.217636657413D+01
   -0.597164034843D-05 0.135693707271D-01 0.105984508991D-04 0.515349113655D+04
    0.864000000000D+05 0.143423676491D-06 0.256697238098D+01-0.232830643654D-06
    0.997107530697D+00 0.193156250000D+03-0.278252864936D+01-0.767496255014D-08
   -0.339657005220D-09 0.100000000000D+01 0.178600000000D+04 0.000000000000D+00
    0.200000000000D+01 0.000000000000D+00-0.419095158577D-08 0.410000000000D+02
    0.792180000000D+05 0.400000000000D+01 0.000000000000D+00 0.000000000000D+00
 9 14  3 31  0  0  0.0 0.316428951919D-03 0.284217094304D-11 0.000000000000D+00
    0.810000000000D+02-0.103312500000D+03 0.424589114412D-08-0.520174600297D+00
   -0.564381480217D-05 0.170349420514D-01 0.894442200661D-05 0.515368617058D+04
    0.864000000000D+05-0.178813934326D-06 0.244803090471D+01 0.372529029846D-07
    0.982371441314D+00 0.224781250000D+03 0.178176998528D+01-0.830606026646D-08
   -0.376801409577D-09 0.100000000000D+01 0.178600000000D+04 0.000000000000D+00
    0.200000000000D+01 0.000000000000D+00-0.605359673500D-08 0.810000000000D+02
    0.792180000000D+05 0.400000000000D+01 0.000000000000D+00 0.000000000000D+00
10 14  3 31  0  0  0.0-0.120005104691D-03-0.136424205266D-11 0.000000000000D+00
    0.480000000000D+02 0.887812500000D+02 0.454911806046D-08 0.224623882438D+01
    0.448524951935D-05 0.134771550074D-01 0.133886933327D-04 0.515372726440D+04
    0.864000000000D+05-0.968575477600D-07 0.364418534558D+00-0.266358256340D-06
    0.942740089389D+00 0.108781250000D+03 0.861114982038D+00-0.800461913880D-08
    0.333585323739D-09 0.100000000000D+01 0.178600000000D+04 0.000000000000D+00
    0.280000000000D+01 0.000000000000D+00-0.279396772385D-08 0.480000000000D+02
    0.831300000000D+05 0.400000000000D+01 0.000000000000D+00 0.000000000000D+00
11 14  3 31  0  0  0.0-0.476588495076D-03-0.318323145621D-11 0.000000000000D+00
    0.120000000000D+03-0.706250000000D+02 0.650134223557D-08-0.142101021322D+01
   -0.353343784809D-05 0.148290338693D-01 0.500679016113D-05 0.515369452667D+04
    0.864000000000D+05 0.182539224625D-06-0.101142108253D+01 0.376254320145D-06
    0.890122944713D+00 0.241562500000D+03 0.127332360068D+01-0.914823820370D-08
   -0.638955186477D-09 0.100000000000D+01 0.178600000000D+04 0.000000000000D+00
    0.280000000000D+01 0.000000000000D+00-0.116415321827D-07 0.120000000000D+03
    0.854700000000D+05 0.400000000000D+01 0.000000000000D+00 0.000000000000D+00
12 14  3 31  0  0  0.0 0.195513479412D-03 0.238742359215D-11 0.000000000000D+00
    0.440000000000D+02 0.194687500000D+02 0.383694542805D-08-0.200202919004D+01
    0.107474625111D-05 0.503573543392D-02 0.131074339151D-04 0.515365619278D+04
    0.864000000000D+05 0.122934579849D-06-0.275273518599D+01-0.912696123123D-07
    0.987335716301D+00 0.140031250000D+03 0.376702382641D+00-0.759710250264D-08
    0.473948325030D-09 0.100000000000D+01 0.178600000000D+04 0.000000000000D+00
    0.200000000000D+01 0.000000000000D+00-0.121071934700D-07 0.440000000000D+02
    0.864000000000D+05 0.000000000000D+00 0.000000000000D+00 0.000000000000D+00
13 14  3 31  0  0  0.0 0.147679820657D-04-0.386535248253D-11 0.000000000000D+00
    0.610000000000D+02 0.193750000000D+02 0.464519349095D-08 0.741733066491D+00
    0.994652509689D-06 0.534367025830D-02 0.196695327759D-05 0.515360492706D+04
    0.864000000000D+05 0.372529029846D-08 0.150369045756D+01-0.128522515297D-06
    0.977785206301D+00 0.348687500000D+03 0.221334861506D+01-0.852249785339D-08
    0.232509684962D-09 0.100000000000D+01 0.178600000000D+04 0.000000000000D+00
    0.200000000000D+01 0.000000000000D+00-0.111758708954D-07 0.610000000000D+02
    0.854700000000D+05 0.400000000000D+01 0.000000000000D+00 0.000000000000D+00
14 14  3 31  0  0  0.0 0.185911543667D-03-0.329691829393D-11 0.000000000000D+00
    0.540000000000D+02 0.348437500000D+02 0.477877048354D-08 0.106955892454D+01
    0.173784792423D-05 0.731947901659D-02 0.199675559998D-05 0.515363596344D+04
    0.864000000000D+05-0.122934579849D-06 0.147221793727D+01 0.856816768646D-07
    0.970374553389D+00 0.342187500000D+03-0.199759003096D+01-0.863607401286D-08
    0.243224416987D-09 0.100000000000D+01 0.178600000000D+04 0.000000000000D+00
    0.200000000000D+01 0.000000000000D+00-0.884756445885D-08 0.540000000000D+02
    0.792180000000D+05 0.400000000000D+01 0.000000000000D+00 0.000000000000D+00
15 14  3 31  0  0  0.0-0.171170104295D-03-0.216004991671D-11 0.000000000000D+00
    0.260000000000D+02 0.612500000000D+02 0.551915846653D-08 0.471905571458D+00
    0.323541462421D-05 0.623047922272D-02 0.223144888878D-05 0.515366314697D+04
    0.864000000000D+05 0.428408384323D-07 0.136203399773D+01 0.689178705216D-07
    0.937017317710D+00 0.322937500000D+03 0.271297613595D+00-0.893965808693D-08
    0.352871841386D-09 0.100000000000D+01 0.178600000000D+04 0.000000000000D+00
    0.200000000000D+01 0.000000000000D+00-0.102445483208D-07 0.260000000000D+02
    0.792480000000D+05 0.400000000000D+01 0.000000000000D+00 0.000000000000D+00
